LEMUR-2-ALEX-MADDY      
1 44407U 19038X   23036.40487127  .00016602  00000+0  72803-3 0  9994
2 44407  97.6558  13.0801 0021212  51.5731 308.7404 15.21852944198368
MOMENTUS-X1             
1 44408U 19038Y   23036.50004077  .00005787  00000+0  30048-3 0  9992
2 44408  97.6662  10.8366 0023309  55.9903 304.3539 15.16282337198227
LEMUR-2-EJATTA          
1 44409U 19038Z   23036.43662618  .00022160  00000+0  84761-3 0  9991
2 44409  97.6443  14.5927 0019658  39.2413 321.0246 15.26418737198555
D-STAR ONE (EXOCONNECT) 
1 44410U 19038AA  23036.46766299  .00032379  00000+0  11140-2 0  9999
2 44410  97.6541  16.0566 0017063  48.9901 311.2811 15.29864318198573
LEMUR-2-GREGROBINSON    
1 44411U 19038AB  23036.51593325  .00028968  00000+0  10772-2 0  9993
2 44411  97.6460  15.0372 0021108  47.8562 312.4465 15.27266901198192
BEESAT 9                
1 44412U 19038AC  23036.44874207  .00017192  00000+0  74339-3 0  9994
2 44412  97.6631  13.5732 0020204  53.7942 306.5158 15.22343097198066
LEMUR-2-YNDRD           
1 44413U 19038AD  23036.49494411  .00019795  00000+0  84926-3 0  9999
2 44413  97.6521  12.9210 0021530  51.6533 308.6634 15.22552789198382
2019-038AE              
1 44414U 19038AE  23036.45930633  .00009650  00000+0  47317-3 0  9999
2 44414  97.6688  12.3347 0022786  57.3185  57.1502 15.18109759197796
NARSSCUBE-2             
1 44415U 19022E   23036.29328553  .00017976  00000+0  44537-3 0  9998
2 44415  51.6382  66.6591 0008952 172.9056 187.2057 15.40430304195922
QUANTUM-RADAR 3         
1 44416U 19022F   23036.34697036  .00269750  00000+0  14154-2 0  9990
2 44416  51.6238  20.1537 0005095 127.0991 233.0476 15.79425833196538
RFTSAT                  
1 44417U 19022G   23036.57535739  .00054148  00000+0  84680-3 0  9992
2 44417  51.6376  44.1632 0005993 176.5762 183.5271 15.53213148196275
JAISAT-1                
1 44419U 19038F   23036.49546539  .00017452  00000+0  74556-3 0  9990
2 44419  97.6632  14.6310 0019105  51.0999 309.1937 15.22770275198447
COSMOS 2536             
1 44422U 19039B   23036.57231467  .00014897  00000+0  14151-2 0  9999
2 44422  97.7259  84.5648 0007415 351.9693   8.1512 14.93569970193974
COSMOS 2537             
1 44423U 19039C   23036.42532348  .00031215  00000+0  24474-2 0  9998
2 44423  97.7562  90.8065 0005925 319.3365 168.0166 15.00884443194081
COSMOS 2538             
1 44424U 19039D   23036.68739724  .00002839  00000+0  22389-3 0  9998
2 44424  97.7463  99.5487 0054215 290.7522  68.7897 15.00429835194592
YAOGAN-30 N             
1 44449U 19045A   23036.58586121  .00002226  00000+0  22159-3 0  9997
2 44449  34.9948 186.8447 0003943  58.1188 301.9965 14.91358462192594
YAOGAN-30 P             
1 44450U 19045B   23036.56203851  .00002344  00000+0  23299-3 0  9990
2 44450  34.9943 186.5818 0009509 224.3353 135.6683 14.91368940192585
YAOGAN-30 Q             
1 44451U 19045C   23036.54112521  .00002263  00000+0  22523-3 0  9991
2 44451  34.9952 186.5191 0001449 267.6302  92.4290 14.91368043192554
MERIDIAN 8              
1 44453U 19046A   23035.93304609  .00000271  00000+0  00000+0 0  9995
2 44453  62.6732 189.2051 6720312 274.3232 348.1643  2.00607628 25780
COSMOS 2539             
1 44457U 19048A   23036.58747902  .00000084  00000+0  00000+0 0  9992
2 44457   0.0371 118.8718 0000832 312.7802 287.2613  1.00272651 12913
EDRS-C                  
1 44475U 19049A   23035.53995471  .00000157  00000+0  00000+0 0  9994
2 44475   0.0667 256.6080 0000283  55.8735  47.4857  1.00272855 12882
INTELSAT 39 (IS-39)     
1 44476U 19049B   23036.58843304  .00000037  00000+0  00000+0 0  9995
2 44476   0.0212 101.3945 0001535  59.8625 247.9947  1.00269283 12820
AMOS-17                 
1 44479U 19050A   23036.51670111  .00000112  00000+0  00000+0 0  9991
2 44479   0.0171  80.2184 0002337 241.3592  16.7961  1.00271274 12875
AEHF-5 (USA 292)        
1 44481U 19051A   23036.45263491  .00000091  00000+0  00000+0 0  9993
2 44481   3.8027 304.3989 0050770 357.6142  50.8578  1.00267182 12953
AEROCUBE 10B (DOUGSAT)  
1 44484U 19022C   23036.39466828  .00061945  00000+0  85795-3 0  9999
2 44484  51.6318  43.5333 0005181 170.5552 189.5538 15.56478900196236
AEROCUBE 10A (JIMSAT)   
1 44485U 19022D   23036.58522213  .00067655  00000+0  93282-3 0  9996
2 44485  51.6310  42.5440 0004803 157.3031 202.8174 15.56565088196264
2019-052A               
1 44486U 19052A   23036.53372870  .00005735  00000+0  33157-3 0  9993
2 44486  97.4748 108.0305 0017761 229.5635 239.0217 15.12535529191191
2019-052B               
1 44487U 19052B   23036.45824252  .00008740  00000+0  48948-3 0  9994
2 44487  97.4763 108.9203 0019005 231.1127 261.2780 15.13504747191251
2019-052C               
1 44488U 19052C   23036.52079215  .00011385  00000+0  61699-3 0  9991
2 44488  97.4747 109.0393 0019259 228.9169 255.2086 15.14599369191265
BRO-1                   
1 44495U 19054A   23036.46323821  .00006375  00000+0  37504-3 0  9990
2 44495  45.0156 217.9935 0011605 182.7418 269.4765 15.12386244191296
PEARL WHITE 1           
1 44497U 19054C   23035.51053029  .00008222  00000+0  46017-3 0  9999
2 44497  45.0127 220.6707 0010820 190.7494 197.6236 15.13867082191127
PEARL WHITE 2           
1 44498U 19054D   23035.79854584  .00008530  00000+0  47203-3 0  9995
2 44498  45.0128 216.1198 0011818 189.4559 186.4560 15.14220323191227
GLOBAL-4                
1 44499U 19054E   23036.43192962  .00007065  00000+0  35933-3 0  9992
2 44499  45.0095 177.2725 0014527 224.5392 135.4320 15.17419265191664
NAVSTAR 78 (USA 293)    
1 44506U 19056A   23036.39541619 -.00000078  00000+0  00000+0 0  9996
2 44506  55.7702  19.7968 0029857 186.7685 349.7246  2.00561641 25444
COSMOS 2540             
1 44517U 19057A   23036.63943128  .00000154  00000+0  17229-3 0  9996
2 44517  99.2530  50.0782 0000237  79.5200  30.7990 13.85883221173839
XIAOXIANG-1 07          
1 44519U 19058A   23036.45534686  .00010270  00000+0  92844-3 0  9990
2 44519  97.7892  46.4209 0014524  97.1319 263.1612 14.95559067186870
KX-09                   
1 44520U 19058B   23036.47742844  .00001499  00000+0  15947-3 0  9993
2 44520  97.7927  44.8055 0013300 103.8364 256.4294 14.90396340186776
ZY-1 02D                
1 44528U 19059A   23036.54544883  .00000207  00000+0  87203-4 0  9994
2 44528  98.4614 115.0219 0001343 116.8013 243.3323 14.35392534178226
BNU-1 (JINGSHI 1)       
1 44529U 19059B   23036.57945046  .00000624  00000+0  18912-3 0  9997
2 44529  98.5192 137.5531 0014726 124.9237 235.3332 14.45579990179453
TAURUS-1 (JINNIUZUO 1)  
1 44530U 19059C   23036.56330253  .00003932  00000+0  10598-2 0  9992
2 44530  98.5486 142.5615 0014105 134.2814 225.9541 14.48428133179571
SEEKER                  
1 44533U 19022K   23036.25891407  .00024752  00000+0  52619-3 0  9998
2 44533  51.6335  53.4554 0008094 166.1536 193.9674 15.44811332189963
ZHUHAI-1 03A            
1 44534U 19060A   23036.38899225  .00017096  00000+0  64164-3 0  9992
2 44534  97.4685 150.3115 0014024 315.5992 130.6799 15.27189496187599
ZHUHAI-1 03B            
1 44536U 19060C   23036.57117279  .00016592  00000+0  62364-3 0  9997
2 44536  97.4706 150.7151 0010291 312.2278 102.6969 15.27190848187638
ZHUHAI-1 03C            
1 44537U 19060D   23036.43014994  .00016713  00000+0  62841-3 0  9998
2 44537  97.4616 149.4880 0009183 335.9493  88.8667 15.27188261187616
ZHUHAI-1 03D            
1 44538U 19060E   23036.41652995  .00016476  00000+0  62002-3 0  9991
2 44538  97.4587 149.0940 0008451 330.4202  97.7440 15.27169116187618
ZHUHAI-1 03E            
1 44539U 19060F   23036.40491080  .00016709  00000+0  62763-3 0  9990
2 44539  97.4723 150.8399 0008321 351.3279  81.5697 15.27227144187612
BEIDOU-3 M23            
1 44542U 19061A   23036.22619052  .00000061  00000+0  00000+0 0  9992
2 44542  54.5259 224.2109 0008651   3.6590 352.4262  1.86231313 22910
BEIDOU-3 M24            
1 44543U 19061B   23036.13430101  .00000062  00000+0  00000+0 0  9990
2 44543  54.5245 224.1837 0005463   2.3396 203.7330  1.86231719 22915
YUNHAI 1-02             
1 44547U 19063A   23036.32524127  .00000341  00000+0  14078-3 0  9993
2 44547  98.4824  61.9443 0001430 173.5714 186.5490 14.32815413176025
COSMOS 2541             
1 44552U 19065A   23036.04202010 -.00000831  00000+0  00000+0 0  9995
2 44552  63.0621 278.7135 6873946 271.4221  23.1820  2.00657607 24628
GAOFEN 10R              
1 44622U 19066A   23036.58402744  .00001650  00000+0  21939-3 0  9996
2 44622  97.9161 337.5421 0002786 356.0321   4.0869 14.81077978180515
EUTELSAT 5 WEST B       
1 44624U 19067A   23036.36895660 -.00000040  00000+0  00000+0 0  9993
2 44624   0.0784 329.2255 0000997 109.1255 184.6833  1.00270395 12134
MEV-1                   
1 44625U 19067B   23035.26368734 -.00000199  00000+0  00000+0 0  9994
2 44625   0.0690 264.0645 0000915  56.1569 241.3554  1.00272157 79265
PALISADE                
1 44634U 19069A   23036.40738748  .00000394  00000+0  10692-2 0  9996
2 44634  87.9033 163.8989 0010836 118.5375 241.6845 13.11845599158139
TJS-4                   
1 44637U 19070A   23036.63473455 -.00000166  00000+0  00000+0 0  9994
2 44637   0.0291 122.0024 0004564 242.6458  82.8677  1.00270951 12230
GAOFEN 7                
1 44703U 19072A   23036.43910969  .00005638  00000+0  25426-3 0  9995
2 44703  97.3861 115.9617 0010071  57.1190   6.8594 15.21369847180979
SRSS-1                  
1 44704U 19072B   23036.45470336  .00027499  00000+0  78038-3 0  9993
2 44704  97.4045 126.0007 0012268  43.6183  17.4003 15.36108511181556
HUANGPU-1               
1 44705U 19072C   23036.42044477  .00028818  00000+0  75958-3 0  9998
2 44705  97.3884 125.0170 0011524  38.7612  91.3262 15.38402793181619
XIAOXIANG 1-08          
1 44706U 19072D   23036.39963813  .00085372  00000+0  13603-2 0  9995
2 44706  97.4034 130.7630 0006548  16.0931  48.2475 15.52935784181866
